IRIDIUM 126             
1 42809U 17039G   24307.86044611  .00000121  00000+0  36319-4 0  9998
2 42809  86.3985 240.7005 0002269  88.5217 271.6239 14.34210809385190
IRIDIUM 124             
1 42810U 17039H   24307.72967819  .00001812  00000+0  53283-3 0  9995
2 42810  86.4546 177.5929 0002161  73.4506 286.6932 14.43274014389809
IRIDIUM 128             
1 42811U 17039J   24307.92095581  .00000354  00000+0  11918-3 0  9995
2 42811  86.3921 272.2082 0002554  85.3486 274.8001 14.34216134385232
IRIDIUM 121             
1 42812U 17039K   24307.87947789  .00000518  00000+0  17791-3 0  9993
2 42812  86.3981 240.7159 0002133  82.3324 277.8114 14.34218313385076
IRIDIUM 133             
1 42955U 17061A   24307.88289778  .00000504  00000+0  17308-3 0  9993
2 42955  86.3925 272.3275 0002123  87.0744 273.0695 14.34212973370026
IRIDIUM 100             
1 42956U 17061B   24307.94632258  .00000082  00000+0  22074-4 0  9994
2 42956  86.3924 272.2328 0002477  83.9913 276.1565 14.34215074370035
IRIDIUM 122             
1 42957U 17061C   24307.91461483  .00000667  00000+0  23120-3 0  9993
2 42957  86.3926 272.2446 0002430  89.2894 270.8580 14.34217162370033
IRIDIUM 129             
1 42958U 17061D   24307.93998337  .00000613  00000+0  21178-3 0  9991
2 42958  86.3927 272.2950 0002102  92.0493 268.0943 14.34215910370051
